start=new Date('2023-03-26T00:00:00.000Z').valueOf();
sats=[{"CENTER_NAME":"EARTH","CLASSIFICATION_TYPE":"U","MEAN_MOTION":"15.06372878","PERIAPSIS":"545.914","RCS_SIZE":"LARGE","FILE":"3871104","BSTAR":"-0.00057281000000","MEAN_ELEMENT_THEORY":"SGP4","TIME_SYSTEM":"UTC","SITE":"AFETR","REV_AT_EPOCH":"13397","MEAN_ANOMALY":"223.6253","OBJECT_NAME":"STARLINK-1851","EPHEMERIS_TYPE":"0","COUNTRY_CODE":"US","NORAD_CAT_ID":"46783","SEMIMAJOR_AXIS":"6925.432","EPOCH":"2023-03-25T07:25:50.951136","ARG_OF_PERICENTER":"136.4893","DECAY_DATE":null,"OBJECT_ID":"2020-074AW","ELEMENT_SET_NO":"999","TLE_LINE2":"2 46783  53.0539 121.6317 0001996 136.4893 223.6253 15.06372878133978","LAUNCH_DATE":"2020-10-24","MEAN_MOTION_DDOT":"0.0000000000000","REF_FRAME":"TEME","INCLINATION":"53.0539","RA_OF_ASC_NODE":"121.6317","TLE_LINE1":"1 46783U 20074AW  23084.30961749 -.00008797  00000-0 -57281-3 0  9996","GP_ID":"228869189","MEAN_MOTION_DOT":"-0.00008797","OBJECT_TYPE":"PAYLOAD","APOAPSIS":"548.679","ECCENTRICITY":"0.00019960","PERIOD":"95.594"},{"LAUNCH_DATE":"2020-10-24","TLE_LINE2":"2 46784  53.0524 120.7162 0001412  96.9984 263.1166 15.06529691134009","MEAN_MOTION_DDOT":"0.0000000000000","DECAY_DATE":null,"EPOCH":"2023-03-25T12:16:19.424352","ARG_OF_PERICENTER":"96.9984","ELEMENT_SET_NO":"999","OBJECT_ID":"2020-074AX","OBJECT_TYPE":"PAYLOAD","MEAN_MOTION_DOT":"0.00026986","ECCENTRICITY":"0.00014120","PERIOD":"95.584","APOAPSIS":"547.794","REF_FRAME":"TEME","GP_ID":"228867937","TLE_LINE1":"1 46784U 20074AX  23084.51133593  .00026986  00000-0  18173-2 0  9992","INCLINATION":"53.0524","RA_OF_ASC_NODE":"120.7162","MEAN_ELEMENT_THEORY":"SGP4","TIME_SYSTEM":"UTC","BSTAR":"0.00181730000000","REV_AT_EPOCH":"13400","SITE":"AFETR","CENTER_NAME":"EARTH","FILE":"3871104","RCS_SIZE":"LARGE","PERIAPSIS":"545.838","MEAN_MOTION":"15.06529691","CLASSIFICATION_TYPE":"U","COUNTRY_CODE":"US","NORAD_CAT_ID":"46784","SEMIMAJOR_AXIS":"6924.951","EPHEMERIS_TYPE":"0","OBJECT_NAME":"STARLINK-1882","MEAN_ANOMALY":"263.1166"},{"FILE":"3871104","RCS_SIZE":"LARGE","PERIAPSIS":"545.832","MEAN_MOTION":"15.06438853","CLASSIFICATION_TYPE":"U","CENTER_NAME":"EARTH","REV_AT_EPOCH":"13405","SITE":"AFETR","MEAN_ELEMENT_THEORY":"SGP4","TIME_SYSTEM":"UTC","BSTAR":"0.00038886000000","EPHEMERIS_TYPE":"0","OBJECT_NAME":"STARLINK-1883","MEAN_ANOMALY":"291.8909","NORAD_CAT_ID":"46785","SEMIMAJOR_AXIS":"6925.229","COUNTRY_CODE":"US","ELEMENT_SET_NO":"999","OBJECT_ID":"2020-074AY","DECAY_DATE":null,"ARG_OF_PERICENTER":"68.2274","EPOCH":"2023-03-25T19:54:08.251488","MEAN_MOTION_DDOT":"0.0000000000000","LAUNCH_DATE":"2020-10-24","TLE_LINE2":"2 46785  53.0537 119.2990 0001823  68.2274 291.8909 15.06438853134053","GP_ID":"228868187","TLE_LINE1":"1 46785U 20074AY  23084.82926217  .00005521  00000-0  38886-3 0  9996","INCLINATION":"53.0537","RA_OF_ASC_NODE":"119.2990","REF_FRAME":"TEME","PERIOD":"95.590","ECCENTRICITY":"0.00018230","APOAPSIS":"548.357","OBJECT_TYPE":"PAYLOAD","MEAN_MOTION_DOT":"0.00005521"},{"GP_ID":"228868939","RA_OF_ASC_NODE":"99.6843","INCLINATION":"53.0533","TLE_LINE1":"1 46786U 20074AZ  23084.74268237  .00003140  00000-0  22948-3 0  9996","REF_FRAME":"TEME","PERIOD":"95.591","ECCENTRICITY":"0.00017130","APOAPSIS":"548.323","MEAN_MOTION_DOT":"0.00003140","OBJECT_TYPE":"PAYLOAD","ELEMENT_SET_NO":"999","OBJECT_ID":"2020-074AZ","DECAY_DATE":null,"ARG_OF_PERICENTER":"73.3077","EPOCH":"2023-03-25T17:49:27.756768","MEAN_MOTION_DDOT":"0.0000000000000","LAUNCH_DATE":"2020-10-24","TLE_LINE2":"2 46786  53.0533  99.6843 0001713  73.3077 286.8100 15.06424923134324","EPHEMERIS_TYPE":"0","MEAN_ANOMALY":"286.8100","OBJECT_NAME":"STARLINK-1893","NORAD_CAT_ID":"46786","SEMIMAJOR_AXIS":"6925.272","COUNTRY_CODE":"US","PERIAPSIS":"545.951","FILE":"3871104","RCS_SIZE":"LARGE","CLASSIFICATION_TYPE":"U","MEAN_MOTION":"15.06424923","CENTER_NAME":"EARTH","SITE":"AFETR","REV_AT_EPOCH":"13432","MEAN_ELEMENT_THEORY":"SGP4","TIME_SYSTEM":"UTC","BSTAR":"0.00022948000000"},{"MEAN_ELEMENT_THEORY":"SGP4","TIME_SYSTEM":"UTC","BSTAR":"-0.00054900000000","SITE":"AFETR","REV_AT_EPOCH":"13432","CENTER_NAME":"EARTH","PERIAPSIS":"546.198","RCS_SIZE":"LARGE","FILE":"3871104","MEAN_MOTION":"15.06388030","CLASSIFICATION_TYPE":"U","COUNTRY_CODE":"US","NORAD_CAT_ID":"46787","SEMIMAJOR_AXIS":"6925.385","EPHEMERIS_TYPE":"0","MEAN_ANOMALY":"267.6568","OBJECT_NAME":"STARLINK-1899","LAUNCH_DATE":"2020-10-24","TLE_LINE2":"2 46787  53.0537  99.7159 0001520  92.4595 267.6568 15.06388030134326","MEAN_MOTION_DDOT":"0.0000000000000","DECAY_DATE":null,"ARG_OF_PERICENTER":"92.4595","EPOCH":"2023-03-25T17:38:51.360288","ELEMENT_SET_NO":"999","OBJECT_ID":"2020-074BA","MEAN_MOTION_DOT":"-0.00008447","OBJECT_TYPE":"PAYLOAD","ECCENTRICITY":"0.00015200","PERIOD":"95.593","APOAPSIS":"548.303","REF_FRAME":"TEME","GP_ID":"228868689","RA_OF_ASC_NODE":"99.7159","INCLINATION":"53.0537","TLE_LINE1":"1 46787U 20074BA  23084.73531667 -.00008447  00000-0 -54900-3 0  9996"},{"CENTER_NAME":"EARTH","MEAN_MOTION":"15.06399777","CLASSIFICATION_TYPE":"U","PERIAPSIS":"546.044","FILE":"3871104","RCS_SIZE":"LARGE","BSTAR":"-0.00123240000000","MEAN_ELEMENT_THEORY":"SGP4","TIME_SYSTEM":"UTC","REV_AT_EPOCH":"13432","SITE":"AFETR","MEAN_ANOMALY":"267.4594","OBJECT_NAME":"STARLINK-1929","EPHEMERIS_TYPE":"0","COUNTRY_CODE":"US","NORAD_CAT_ID":"46788","SEMIMAJOR_AXIS":"6925.349","ARG_OF_PERICENTER":"92.6588","EPOCH":"2023-03-25T17:28:14.180160","DECAY_DATE":null,"OBJECT_ID":"2020-074BB","ELEMENT_SET_NO":"999","TLE_LINE2":"2 46788  53.0544  99.7550 0001690  92.6588 267.4594 15.06399777134329","LAUNCH_DATE":"2020-10-24","MEAN_MOTION_DDOT":"0.0000000000000","REF_FRAME":"TEME","RA_OF_ASC_NODE":"99.7550","INCLINATION":"53.0544","TLE_LINE1":"1 46788U 20074BB  23084.72794190 -.00018591  00000-0 -12324-2 0  9992","GP_ID":"228867438","OBJECT_TYPE":"PAYLOAD","MEAN_MOTION_DOT":"-0.00018591","APOAPSIS":"548.385","ECCENTRICITY":"0.00016900","PERIOD":"95.592"},{"MEAN_MOTION_DDOT":"0.0000000000000","TLE_LINE2":"2 46789  53.0518 129.5179 0001556  75.2474 284.8688 15.06453026133911","LAUNCH_DATE":"2020-10-24","OBJECT_ID":"2020-074BC","ELEMENT_SET_NO":"999","EPOCH":"2023-03-25T19:36:57.400128","ARG_OF_PERICENTER":"75.2474","DECAY_DATE":null,"APOAPSIS":"548.129","PERIOD":"95.589","ECCENTRICITY":"0.00015560","MEAN_MOTION_DOT":"0.00006347","OBJECT_TYPE":"PAYLOAD","TLE_LINE1":"1 46789U 20074BC  23084.81733102  .00006347  00000-0  44396-3 0  9998","INCLINATION":"53.0518","RA_OF_ASC_NODE":"129.5179","GP_ID":"228867688","REF_FRAME":"TEME","REV_AT_EPOCH":"13391","SITE":"AFETR","BSTAR":"0.00044396000000","TIME_SYSTEM":"UTC","MEAN_ELEMENT_THEORY":"SGP4","MEAN_MOTION":"15.06453026","CLASSIFICATION_TYPE":"U","RCS_SIZE":"LARGE","FILE":"3871104","PERIAPSIS":"545.973","CENTER_NAME":"EARTH","NORAD_CAT_ID":"46789","SEMIMAJOR_AXIS":"6925.186","COUNTRY_CODE":"US","OBJECT_NAME":"STARLINK-1930","MEAN_ANOMALY":"284.8688","EPHEMERIS_TYPE":"0"},{"CENTER_NAME":"EARTH","MEAN_MOTION":"15.06378728","CLASSIFICATION_TYPE":"U","PERIAPSIS":"546.753","RCS_SIZE":"LARGE","FILE":"3871104","BSTAR":"-0.00365630000000","MEAN_ELEMENT_THEORY":"SGP4","TIME_SYSTEM":"UTC","SITE":"AFETR","REV_AT_EPOCH":"13391","MEAN_ANOMALY":"251.5735","OBJECT_NAME":"STARLINK-1931","EPHEMERIS_TYPE":"0","COUNTRY_CODE":"US","SEMIMAJOR_AXIS":"6925.414","NORAD_CAT_ID":"46790","EPOCH":"2023-03-25T20:19:23.466432","ARG_OF_PERICENTER":"108.5337","DECAY_DATE":null,"OBJECT_ID":"2020-074BD","ELEMENT_SET_NO":"999","TLE_LINE2":"2 46790  53.0539 129.2177 0000759 108.5337 251.5735 15.06378728133912","LAUNCH_DATE":"2020-10-24","MEAN_MOTION_DDOT":"0.0000000000000","REF_FRAME":"TEME","RA_OF_ASC_NODE":"129.2177","INCLINATION":"53.0539","TLE_LINE1":"1 46790U 20074BD  23084.84679938 -.00054296  00000-0 -36563-2 0  9993","GP_ID":"228868439","OBJECT_TYPE":"PAYLOAD","MEAN_MOTION_DOT":"-0.00054296","APOAPSIS":"547.804","ECCENTRICITY":"0.00007590","PERIOD":"95.593"},{"MEAN_ANOMALY":"229.6057","OBJECT_NAME":"STARLINK-1933","EPHEMERIS_TYPE":"0","SEMIMAJOR_AXIS":"6925.232","NORAD_CAT_ID":"46791","COUNTRY_CODE":"US","MEAN_MOTION":"15.06438068","CLASSIFICATION_TYPE":"U","PERIAPSIS":"546.203","RCS_SIZE":"LARGE","FILE":"3871104","CENTER_NAME":"EARTH","REV_AT_EPOCH":"13385","SITE":"AFETR","BSTAR":"0.00044249000000","MEAN_ELEMENT_THEORY":"SGP4","TIME_SYSTEM":"UTC","INCLINATION":"53.0526","RA_OF_ASC_NODE":"131.2401","TLE_LINE1":"1 46791U 20074BE  23084.39712755  .00006322  00000-0  44249-3 0  9995","GP_ID":"228869190","REF_FRAME":"TEME","APOAPSIS":"547.991","ECCENTRICITY":"0.00012910","PERIOD":"95.590","MEAN_MOTION_DOT":"0.00006322","OBJECT_TYPE":"PAYLOAD","OBJECT_ID":"2020-074BE","ELEMENT_SET_NO":"999","ARG_OF_PERICENTER":"130.5045","EPOCH":"2023-03-25T09:31:51.820320","DECAY_DATE":null,"MEAN_MOTION_DDOT":"0.0000000000000","TLE_LINE2":"2 46791  53.0526 131.2401 0001291 130.5045 229.6057 15.06438068133855","LAUNCH_DATE":"2020-10-24"},{"CLASSIFICATION_TYPE":"U","MEAN_MOTION":"15.06427820","PERIAPSIS":"545.848","FILE":"3871104","RCS_SIZE":"LARGE","CENTER_NAME":"EARTH","SITE":"AFETR","REV_AT_EPOCH":"13405","BSTAR":"-0.00017017000000","MEAN_ELEMENT_THEORY":"SGP4","TIME_SYSTEM":"UTC","MEAN_ANOMALY":"283.4728","OBJECT_NAME":"STARLINK-1934","EPHEMERIS_TYPE":"0","NORAD_CAT_ID":"46792","SEMIMAJOR_AXIS":"6925.263","COUNTRY_CODE":"US","OBJECT_ID":"2020-074BF","ELEMENT_SET_NO":"999","EPOCH":"2023-03-25T19:43:33.237408","ARG_OF_PERICENTER":"76.6467","DECAY_DATE":null,"MEAN_MOTION_DDOT":"0.0000000000000","TLE_LINE2":"2 46792  53.0517 119.3324 0001849  76.6467 283.4728 15.06427820134054","LAUNCH_DATE":"2020-10-24","RA_OF_ASC_NODE":"119.3324","INCLINATION":"53.0517","TLE_LINE1":"1 46792U 20074BF  23084.82191247 -.00002817  00000-0 -17017-3 0  9991","GP_ID":"228867938","REF_FRAME":"TEME","APOAPSIS":"548.409","ECCENTRICITY":"0.00018490","PERIOD":"95.590","MEAN_MOTION_DOT":"-0.00002817","OBJECT_TYPE":"PAYLOAD"}];
